NORAD_CAT_ID,OBJECT_NAME,OBJECT_TYPE,EPOCH,MEAN_MOTION,ECCENTRICITY,INCLINATION,RA_OF_ASC_NODE,ARG_OF_PERICENTER,MEAN_ANOMALY,BSTAR,MEAN_MOTION_DOT,MEAN_MOTION_DDOT,TLE_LINE0,TLE_LINE1,TLE_LINE2,SEMIMAJOR_AXIS,PERIOD,APOGEE,PERIGEE,DECAYED
54103.0,STARLINK-5200,PAYLOAD,2024-08-08 20:23:26,15.08847555,0.0001279,53.2171,27.9279,88.9361,271.1778,0.00017394,2.482e-05,0.0,0 STARLINK-5200,1 54103U 22136BE  24221.84961494  .00002482  00000-0  17394-3 0  9996,2 54103  53.2171  27.9279 0001279  88.9361 271.1778 15.08847555100501,6917.857,95.437,540.607,538.838,0.0
54103.0,STARLINK-5200,PAYLOAD,2024-08-09 10:41:55,15.08824941,0.0001353,53.2169,25.2516,94.1863,265.9284,-0.00018901,-3.293e-05,0.0,0 STARLINK-5200,1 54103U 22136BE  24222.44578566 -.00003293  00000-0 -18901-3 0  9995,2 54103  53.2169  25.2516 0001353  94.1863 265.9284 15.08824941100598,6917.926,95.439,540.727,538.855,0.0
54103.0,STARLINK-5200,PAYLOAD,2024-08-09 20:14:13,15.08844877,0.0001277,53.2172,23.4658,99.5138,260.5999,0.00014566,2.031e-05,0.0,0 STARLINK-5200,1 54103U 22136BE  24222.84321757  .00002031  00000-0  14566-3 0  9997,2 54103  53.2172  23.4658 0001277  99.5138 260.5999 15.08844877100659,6917.865,95.437,540.614,538.847,0.0
54103.0,STARLINK-5200,PAYLOAD,2024-08-10 10:32:42,15.08847205,0.0001245,53.2173,20.7898,100.7473,259.3659,0.00012829,1.755e-05,0.0,0 STARLINK-5200,1 54103U 22136BE  24223.43937592  .00001755  00000-0  12829-3 0  9995,2 54103  53.2173  20.7898 0001245 100.7473 259.3659 15.08847205100273,6917.858,95.437,540.585,538.862,0.0
54103.0,STARLINK-5200,PAYLOAD,2024-08-10 20:05:00,15.08851044,0.000123,53.2171,19.0046,103.9898,256.1231,0.00030728,4.607e-05,0.0,0 STARLINK-5200,1 54103U 22136BE  24223.83681456  .00004607  00000-0  30728-3 0  9991,2 54103  53.2171  19.0046 0001230 103.9898 256.1231 15.08851044100331,6917.847,95.437,540.563,538.861,0.0
54103.0,STARLINK-5200,PAYLOAD,2024-08-11 04:01:56,15.08859667,0.0001289,53.2179,17.5185,103.1046,257.009,0.00045337,6.939e-05,0.0,0 STARLINK-5200,1 54103U 22136BE  24224.16800994  .00006939  00000-0  45337-3 0  9990,2 54103  53.2179  17.5185 0001289 103.1046 257.0090 15.08859667100856,6917.82,95.436,540.577,538.794,0.0
54103.0,STARLINK-5200,PAYLOAD,2024-08-11 19:55:48,15.08840245,0.0001849,53.2179,14.545,96.3603,263.76,7.9767e-05,9.82e-06,0.0,0 STARLINK-5200,1 54103U 22136BE  24224.83042029  .00000982  00000-0  79767-4 0  9998,2 54103  53.2179  14.5450 0001849  96.3603 263.7600 15.08840245100956,6917.88,95.438,541.024,538.466,0.0
54103.0,STARLINK-5200,PAYLOAD,2024-08-12 19:46:34,15.08858372,0.000125,53.2167,10.0826,102.5504,257.5628,0.00061598,9.534e-05,0.0,0 STARLINK-5200,1 54103U 22136BE  24225.82401468  .00009534  00000-0  61598-3 0  9998,2 54103  53.2167  10.0826 0001250 102.5504 257.5628 15.08858372100633,6917.824,95.436,540.554,538.825,0.0
54103.0,STARLINK-5200,PAYLOAD,2024-08-13 02:08:06,15.08879404,0.0001235,53.2186,8.8975,104.0146,256.0983,0.0013503,0.0002129,0.0,0 STARLINK-5200,1 54103U 22136BE  24226.08896852  .00021290  00000-0  13503-2 0  9997,2 54103  53.2186   8.8975 0001235 104.0146 256.0983 15.08879404101140,6917.76,95.435,540.479,538.771,0.0
54103.0,STARLINK-5200,PAYLOAD,2024-08-13 10:05:04,15.0878897,0.0001537,53.216,7.4111,84.7113,275.4054,-0.0013519,-0.00021709,0.0,0 STARLINK-5200,1 54103U 22136BE  24226.42019259 -.00021709  00000-0 -13519-2 0  9997,2 54103  53.2160   7.4111 0001537  84.7113 275.4054 15.08788970101198,6918.036,95.441,540.965,538.838,0.0
54103.0,STARLINK-5200,PAYLOAD,2024-08-13 16:26:37,15.08799095,9.24e-05,53.2154,6.2205,55.3014,304.8065,-0.00068821,-0.00011211,0.0,0 STARLINK-5200,1 54103U 22136BE  24226.68515787 -.00011211  00000-0 -68821-3 0  9996,2 54103  53.2154   6.2205 0000924  55.3014 304.8065 15.08799095101239,6918.005,95.44,540.51,539.231,0.0
54103.0,STARLINK-5200,PAYLOAD,2024-08-14 01:58:57,15.08801719,0.0002667,53.2209,4.4381,88.3565,271.7732,-0.00030269,-5.098e-05,0.0,0 STARLINK-5200,1 54103U 22136BE  24227.08260790 -.00005098  00000-0 -30269-3 0  9993,2 54103  53.2209   4.4381 0002667  88.3565 271.7732 15.08801719101294,6917.997,95.44,541.707,538.017,0.0
54103.0,STARLINK-5200,PAYLOAD,2024-08-14 13:06:38,15.08870371,0.0001202,53.2192,2.3617,82.8899,277.223,0.0021398,0.0003396,0.0,0 STARLINK-5200,1 54103U 22136BE  24227.54627487  .00033960  00000-0  21398-2 0  9993,2 54103  53.2192   2.3617 0001202  82.8899 277.2230 15.08870371101369,6917.788,95.436,540.484,538.821,0.0
54103.0,STARLINK-5200,PAYLOAD,2024-08-14 14:42:00,15.08880966,0.0001247,53.2191,2.061,120.6287,239.4828,0.0021071,0.00033444,0.0,0 STARLINK-5200,1 54103U 22136BE  24227.61250630  .00033444  00000-0  21071-2 0  9998,2 54103  53.2191   2.0610 0001247 120.6287 239.4828 15.08880966100902,6917.755,95.435,540.483,538.758,0.0
54103.0,STARLINK-5200,PAYLOAD,2024-08-14 16:17:23,15.08891779,0.0001081,53.2176,1.761,56.3202,303.7893,0.0027313,0.00043511,0.0,0 STARLINK-5200,1 54103U 22136BE  24227.67874658  .00043511  00000-0  27313-2 0  9997,2 54103  53.2176   1.7610 0001081  56.3202 303.7893 15.08891779101383,6917.722,95.434,540.335,538.839,0.0
54103.0,STARLINK-5200,PAYLOAD,2024-08-15 20:54:19,15.08840208,0.000121,53.2169,356.4079,38.328,321.7798,-9.3306e-05,-1.773e-05,0.0,0 STARLINK-5200,1 54103U 22136BE  24228.87105974 -.00001773  00000-0 -93306-4 0  9991,2 54103  53.2169 356.4079 0001210  38.3280 321.7798 15.08840208101569,6917.88,95.438,540.582,538.908,0.0
54103.0,STARLINK-5200,PAYLOAD,2024-08-15 22:29:42,15.08839622,7.62e-05,53.2166,356.1096,86.4895,273.6184,-3.9756e-05,-9.2e-06,0.0,0 STARLINK-5200,1 54103U 22136BE  24228.93729784 -.00000920  00000-0 -39756-4 0  9991,2 54103  53.2166 356.1096 0000762  86.4895 273.6184 15.08839622101101,6917.882,95.438,540.274,539.219,0.0
54103.0,STARLINK-5200,PAYLOAD,2024-08-16 01:40:28,15.08825902,8.6e-05,53.2166,355.5157,89.6198,270.4892,-0.00021228,-3.663e-05,0.0,0 STARLINK-5200,1 54103U 22136BE  24229.06977758 -.00003663  00000-0 -21228-3 0  9993,2 54103  53.2166 355.5157 0000860  89.6198 270.4892 15.08825902101121,6917.923,95.438,540.383,539.194,0.0
54103.0,STARLINK-5200,PAYLOAD,2024-08-16 20:45:07,15.08826738,6.87e-05,53.2174,351.9488,82.2793,277.8277,0.0020355,0.00032244,0.0,0 STARLINK-5200,1 54103U 22136BE  24229.86466860  .00032244  00000-0  20355-2 0  9992,2 54103  53.2174 351.9488 0000687  82.2793 277.8277 15.08826738101243,6917.921,95.438,540.261,539.311,0.0
54103.0,STARLINK-5200,PAYLOAD,2024-08-16 22:20:30,15.08838867,0.0001154,53.2174,351.6511,87.0285,273.0839,0.0025722,0.00040885,0.0,0 STARLINK-5200,1 54103U 22136BE  24229.93090971  .00040885  00000-0  25722-2 0  9999,2 54103  53.2174 351.6511 0001154  87.0285 273.0839 15.08838867101727,6917.884,95.438,540.547,538.951,0.0
54103.0,STARLINK-5200,PAYLOAD,2024-08-17 07:52:49,15.08832361,0.0001007,53.2161,349.8653,117.7667,242.3428,0.00020528,2.98e-05,0.0,0 STARLINK-5200,1 54103U 22136BE  24230.32834846  .00002980  00000-0  20528-3 0  9995,2 54103  53.2161 349.8653 0001007 117.7667 242.3428 15.08832361101783,6917.904,95.438,540.465,539.072,0.0
54103.0,STARLINK-5200,PAYLOAD,2024-08-18 12:29:45,15.08862205,9.06e-05,53.217,344.5134,97.4355,262.674,0.0010776,0.00016914,0.0,0 STARLINK-5200,1 54103U 22136BE  24231.52066744  .00016914  00000-0  10776-2 0  9997,2 54103  53.2170 344.5134 0000906  97.4355 262.6740 15.08862205101966,6917.813,95.436,540.304,539.051,0.0
54103.0,STARLINK-5200,PAYLOAD,2024-08-18 14:05:08,15.08863519,8.85e-05,53.2171,344.2166,92.9442,267.1652,0.0010473,0.0001643,0.0,0 STARLINK-5200,1 54103U 22136BE  24231.58690659  .00016430  00000-0  10473-2 0  9998,2 54103  53.2171 344.2166 0000885  92.9442 267.1652 15.08863519101503,6917.809,95.436,540.286,539.061,0.0
54103.0,STARLINK-5200,PAYLOAD,2024-08-19 13:55:55,15.08834615,8.53e-05,53.2183,339.7545,65.4863,294.6218,-3.5598e-05,-8.54e-06,0.0,0 STARLINK-5200,1 54103U 22136BE  24232.58050699 -.00000854  00000-0 -35598-4 0  9995,2 54103  53.2183 339.7545 0000853  65.4863 294.6218 15.08834615102120,6917.897,95.438,540.352,539.172,0.0
54103.0,STARLINK-5200,PAYLOAD,2024-08-20 13:46:43,15.08848443,0.000114,53.2175,335.2937,60.1193,299.9913,0.00075244,0.0001171,0.0,0 STARLINK-5200,1 54103U 22136BE  24233.57411031  .00011710  00000-0  75244-3 0  9998,2 54103  53.2175 335.2937 0001140  60.1193 299.9913 15.08848443101803,6917.855,95.437,540.508,538.931,0.0
54103.0,STARLINK-5200,PAYLOAD,2024-08-21 05:40:34,15.08843736,0.0001353,53.2182,332.3252,65.9085,294.2049,0.00028707,4.284e-05,0.0,0 STARLINK-5200,1 54103U 22136BE  24234.23651141  .00004284  00000-0  28707-3 0  9990,2 54103  53.2182 332.3252 0001353  65.9085 294.2049 15.08843736102379,6917.869,95.437,540.67,538.798,0.0
54103.0,STARLINK-5200,PAYLOAD,2024-08-21 13:37:30,15.08828216,0.0001113,53.2175,330.8327,68.8158,291.2953,2.0013e-05,3.1e-07,0.0,0 STARLINK-5200,1 54103U 22136BE  24234.56771843  .00000031  00000-0  20013-4 0  9997,2 54103  53.2175 330.8327 0001113  68.8158 291.2953 15.08828216102427,6917.916,95.438,540.551,539.011,0.0
